QIANFAN-73              
1 63159U 25046A   25330.90365019  .00000052  00000+0  61598-4 0  9996
2 63159  88.9751 321.6634 0015311 162.7645 197.4029 13.50974217 45270
QIANFAN-74              
1 63160U 25046B   25330.88708700  .00000059  00000+0  72196-4 0  9996
2 63160  88.9752 321.5537 0001991  84.2671 275.8707 13.50976383 45337
QIANFAN-75              
1 63161U 25046C   25330.94845241  .00000120  00000+0  16743-3 0  9990
2 63161  88.9754 321.7807 0016323 166.1391 194.0211 13.50990125 45215
QIANFAN-76              
1 63162U 25046D   25330.94489597 -.00000091  00000+0 -15990-3 0  9991
2 63162  88.9747 321.7620 0013859 165.8633 194.2908 13.50964492 45221
QIANFAN-77              
1 63163U 25046E   25330.91754380  .00000174  00000+0  11645-3 0  9997
2 63163  88.9754 319.9013 0016429 125.0888 235.1832 13.96077502 46242
QIANFAN-78              
1 63164U 25046F   25330.91185339  .00000020  00000+0  11882-4 0  9994
2 63164  88.9752 321.6295 0015171 168.6150 191.5348 13.50974696 45292
QIANFAN-79              
1 63165U 25046G   25330.94053339  .00000056  00000+0  68228-4 0  9997
2 63165  88.9756 321.7334 0014919 166.6656 193.4893 13.50975828 45249
QIANFAN-80              
1 63166U 25046H   25330.88295976  .00000099  00000+0  13380-3 0  9991
2 63166  88.9753 321.4465 0013758 170.6527 189.4883 13.50980494 45396
